*******************************************************************************
JPL/HORIZONS            2582 Harimaya-Bashi (1981 SA)      2023-Sep-04 11:18:45
Rec #:    2582 (+COV) Soln.date: 2023-Aug-22_23:22:04   # obs: 8762 (1938-2023)
 
IAU76/J2000 helio. ecliptic osc. elements (au, days, deg., period=Julian yrs):
 
  EPOCH=  2457866.5 ! 2017-Apr-23.00 (TDB)         Residual RMS= .24149
   EC= .0654158143846008   QR= 2.99035135919124    TP= 2458895.2577203028
   OM= 56.31490841979996   W=  236.8231740311957   IN= 18.15150879907862
   A= 3.199659704515727    MA= 182.8417044221953   ADIST= 3.408968049840214
   PER= 5.72353            N= .172206042           ANGMOM= .030704506
   DAN= 3.30425            DDN= 3.07586            L= 291.785228
   B= -15.1143817          MOID= 2.0113399         TP= 2020-Feb-15.7577203028
 
Asteroid physical parameters (km, seconds, rotational period in hours):
   GM= n.a.                RAD= 14.435             ROTPER= 7.238
   H= 10.57                G= .150                 B-V= n.a.
                           ALBEDO= .1337           STYP= Xc

ASTEROID comments: 
1: soln ref.= JPL#57, OCC=0
2: source=ORB
*******************************************************************************


*******************************************************************************
Ephemeris / API_USER Mon Sep  4 11:18:45 2023 Pasadena, USA      / Horizons
*******************************************************************************
Target body name: 2582 Harimaya-Bashi (1981 SA)   {source: JPL#57}
Center body name: Solar System Barycenter (0)     {source: DE441}
Center-site name: BODY CENTER
*******************************************************************************
Start time      : A.D. 2023-Aug-12 00:00:00.0000 TDB
Stop  time      : A.D. 2023-Aug-13 00:00:00.0000 TDB
Step-size       : 2880 minutes
*******************************************************************************
Center geodetic : 0.0, 0.0, 0.0                   {E-lon(deg),Lat(deg),Alt(km)}
Center cylindric: 0.0, 0.0, 0.0                   {E-lon(deg),Dxy(km),Dz(km)}
Center radii    : (undefined)
Small perturbers: Yes                             {source: SB441-N16}
Output units    : KM-S
Calendar mode   : Mixed Julian/Gregorian
Output type     : GEOMETRIC cartesian states
Output format   : 2 (position and velocity)
Reference frame : Ecliptic of J2000.0
*******************************************************************************
Initial IAU76/J2000 heliocentric ecliptic osculating elements (au, days, deg.):
  EPOCH=  2457866.5 ! 2017-Apr-23.00 (TDB)         Residual RMS= .24149        
   EC= .0654158143846008   QR= 2.99035135919124    TP= 2458895.2577203028      
   OM= 56.31490841979996   W=  236.8231740311957   IN= 18.15150879907862       
  Equivalent ICRF heliocentric cartesian coordinates (au, au/d):
   X=-1.353419570791373E+00  Y= 2.382058166030469E+00  Z= 2.028194152843687E+00
  VX=-7.919642353984206E-03 VY=-4.280705574081164E-03 VZ=-3.034129953713324E-04
Asteroid physical parameters (km, seconds, rotational period in hours):        
   GM= n.a.                RAD= 14.435             ROTPER= 7.238               
   H= 10.57                G= .150                 B-V= n.a.                   
                           ALBEDO= .1337           STYP= Xc                    
*******************************************************************************
JDTDB
   X     Y     Z
   VX    VY    VZ
*******************************************************************************
$$SOE
2460168.500000000 = A.D. 2023-Aug-12 00:00:00.0000 TDB 
 X =-4.039593803220242E+08 Y = 2.561348998123167E+08 Z = 1.562237268272960E+08
 VX=-8.015749531744870E+00 VY=-1.368598009503033E+01 VZ=-3.066978665393556E-01
$$EOE
*******************************************************************************
 
TIME

  Barycentric Dynamical Time ("TDB" or T_eph) output was requested. This
continuous coordinate time is equivalent to the relativistic proper time
of a clock at rest in a reference frame co-moving with the solar system
barycenter but outside the system's gravity well. It is the independent
variable in the solar system relativistic equations of motion.

  TDB runs at a uniform rate of one SI second per second and is independent
of irregularities in Earth's rotation.
 
CALENDAR SYSTEM

  Mixed calendar mode was active such that calendar dates after AD 1582-Oct-15
(if any) are in the modern Gregorian system. Dates prior to 1582-Oct-5 (if any)
are in the Julian calendar system, which is automatically extended for dates
prior to its adoption on 45-Jan-1 BC.  The Julian calendar is useful for
matching historical dates. The Gregorian calendar more accurately corresponds
to the Earth's orbital motion and seasons. A "Gregorian-only" calendar mode is
available if such physical events are the primary interest.

REFERENCE FRAME AND COORDINATES

  Ecliptic at the standard reference epoch

    Reference epoch: J2000.0
    X-Y plane: adopted Earth orbital plane at the reference epoch
               Note: IAU76 obliquity of 84381.448 arcseconds wrt ICRF X-Y plane
    X-axis   : ICRF
    Z-axis   : perpendicular to the X-Y plane in the directional (+ or -) sense
               of Earth's north pole at the reference epoch.

  Symbol meaning:

    JDTDB    Julian Day Number, Barycentric Dynamical Time
      X      X-component of position vector (km)
      Y      Y-component of position vector (km)
      Z      Z-component of position vector (km)
      VX     X-component of velocity vector (km/sec)                           
      VY     Y-component of velocity vector (km/sec)                           
      VZ     Z-component of velocity vector (km/sec)                           

ABERRATIONS AND CORRECTIONS

 Geometric state vectors have NO corrections or aberrations applied.

Computations by ...

    Solar System Dynamics Group, Horizons On-Line Ephemeris System
    4800 Oak Grove Drive, Jet Propulsion Laboratory
    Pasadena, CA  91109   USA

    General site: https://ssd.jpl.nasa.gov/
    Mailing list: https://ssd.jpl.nasa.gov/email_list.html
    System news : https://ssd.jpl.nasa.gov/horizons/news.html
    User Guide  : https://ssd.jpl.nasa.gov/horizons/manual.html
    Connect     : browser        https://ssd.jpl.nasa.gov/horizons/app.html#/x
                  API            https://ssd-api.jpl.nasa.gov/doc/horizons.html
                  command-line   telnet ssd.jpl.nasa.gov 6775
                  e-mail/batch   https://ssd.jpl.nasa.gov/ftp/ssd/hrzn_batch.txt
                  scripts        https://ssd.jpl.nasa.gov/ftp/ssd/SCRIPTS
    Author      : Jon.D.Giorgini@jpl.nasa.gov
*******************************************************************************
